NORAD_CAT_ID,OBJECT_NAME,OBJECT_TYPE,EPOCH,MEAN_MOTION,ECCENTRICITY,INCLINATION,RA_OF_ASC_NODE,ARG_OF_PERICENTER,MEAN_ANOMALY,BSTAR,MEAN_MOTION_DOT,MEAN_MOTION_DDOT,TLE_LINE0,TLE_LINE1,TLE_LINE2,SEMIMAJOR_AXIS,PERIOD,APOGEE,PERIGEE,DECAYED
53732.0,STARLINK-4661,PAYLOAD,2023-03-02 16:00:36,15.08892393,0.0001598,53.2159,165.8492,110.7407,249.3756,0.0027224,0.00043368,0.0,0 STARLINK-4661,1 53732U 22107AJ  23061.66709257  .00043368  00000-0  27224-2 0  9999,2 53732  53.2159 165.8492 0001598 110.7407 249.3756 15.08892393 28032,6917.72,95.434,540.691,538.48,0.0
53732.0,STARLINK-4661,PAYLOAD,2023-03-02 19:11:22,15.08904846,0.0001587,53.2159,165.2543,109.7476,250.3687,0.0027357,0.00043598,0.0,0 STARLINK-4661,1 53732U 22107AJ  23061.79956720  .00043598  00000-0  27357-2 0  9994,2 53732  53.2159 165.2543 0001587 109.7476 250.3687 15.08904846 27452,6917.682,95.433,540.645,538.449,0.0
53732.0,STARLINK-4661,PAYLOAD,2023-03-03 11:05:14,15.08876061,0.0001858,53.2161,162.2813,62.9686,297.1496,0.0027093,0.00043138,0.0,0 STARLINK-4661,1 53732U 22107AJ  23062.46197108  .00043138  00000-0  27093-2 0  9993,2 53732  53.2161 162.2813 0001858  62.9686 297.1496 15.08876061 27551,6917.77,95.435,540.92,538.35,0.0
53732.0,STARLINK-4661,PAYLOAD,2023-03-03 19:02:09,15.08902195,0.0001791,53.2161,160.7946,48.1409,311.9736,0.0034694,0.00055457,0.0,0 STARLINK-4661,1 53732U 22107AJ  23062.79316236  .00055457  00000-0  34694-2 0  9996,2 53732  53.2161 160.7946 0001791  48.1409 311.9736 15.08902195 28209,6917.69,95.434,540.794,538.316,0.0
53732.0,STARLINK-4661,PAYLOAD,2023-03-03 23:48:18,15.08856176,8.24e-05,53.216,159.9021,141.5165,218.5886,-0.00090029,-0.00014593,0.0,0 STARLINK-4661,1 53732U 22107AJ  23062.99187754 -.00014593  00000-0 -90029-3 0  9992,2 53732  53.2160 159.9021 0000824 141.5165 218.5886 15.08856176 27636,6917.831,95.437,540.266,539.126,0.0
53732.0,STARLINK-4661,PAYLOAD,2023-03-04 10:56:00,15.08862168,0.0001082,53.2165,157.821,73.1915,286.9196,0.0035027,0.00055934,0.0,0 STARLINK-4661,1 53732U 22107AJ  23063.45556343  .00055934  00000-0  35027-2 0  9996,2 53732  53.2165 157.8210 0001082  73.1915 286.9196 15.08862168 28304,6917.813,95.436,540.426,538.929,0.0
53732.0,STARLINK-4661,PAYLOAD,2023-03-04 17:17:32,15.08893829,0.0001286,53.2163,156.6311,75.4502,284.6632,0.0035619,0.00056942,0.0,0 STARLINK-4661,1 53732U 22107AJ  23063.72051671  .00056942  00000-0  35619-2 0  9997,2 53732  53.2163 156.6311 0001286  75.4502 284.6632 15.08893829 27749,6917.716,95.434,540.47,538.691,0.0
53732.0,STARLINK-4661,PAYLOAD,2023-03-04 23:39:05,15.08826129,0.0001166,53.2178,155.4399,110.7542,249.3576,0.0016917,0.00026728,0.0,0 STARLINK-4661,1 53732U 22107AJ  23063.98547796  .00026728  00000-0  16917-2 0  9992,2 53732  53.2178 155.4399 0001166 110.7542 249.3576 15.08826129 27780,6917.923,95.438,540.594,538.981,0.0
53732.0,STARLINK-4661,PAYLOAD,2023-03-06 05:51:25,15.08909955,0.0001973,53.217,149.7906,99.1151,261.0065,0.0036695,0.00058712,0.0,0 STARLINK-4661,1 53732U 22107AJ  23065.24404166  .00058712  00000-0  36695-2 0  9999,2 53732  53.2170 149.7906 0001973  99.1151 261.0065 15.08909955 27978,6917.667,95.433,540.896,538.167,0.0
53732.0,STARLINK-4661,PAYLOAD,2023-03-06 10:37:34,15.08870965,0.0001314,53.2171,148.8997,73.5385,286.5751,0.0033262,0.00053092,0.0,0 STARLINK-4661,1 53732U 22107AJ  23065.44275907  .00053092  00000-0  33262-2 0  9993,2 53732  53.2171 148.8997 0001314  73.5385 286.5751 15.08870965 28000,6917.786,95.436,540.56,538.742,0.0
53732.0,STARLINK-4661,PAYLOAD,2023-03-06 16:59:06,15.0888727,0.0001267,53.2172,147.7113,78.0484,282.065,0.0015182,0.00023988,0.0,0 STARLINK-4661,1 53732U 22107AJ  23065.70770997  .00023988  00000-0  15182-2 0  9993,2 53732  53.2172 147.7113 0001267  78.0484 282.0650 15.08887270 28046,6917.736,95.435,540.477,538.724,0.0
53732.0,STARLINK-4661,PAYLOAD,2023-03-07 05:42:12,15.08830254,0.0001262,53.2172,145.3323,98.667,261.4465,-0.00021848,-3.762e-05,0.0,0 STARLINK-4661,1 53732U 22107AJ  23066.23764405 -.00003762  00000-0 -21848-3 0  9996,2 53732  53.2172 145.3323 0001262  98.6670 261.4465 15.08830254 28127,6917.91,95.438,540.648,538.902,0.0
53732.0,STARLINK-4661,PAYLOAD,2023-03-07 12:03:45,15.08850658,0.0001109,53.2171,144.1427,96.7499,263.3619,0.0027381,0.00043571,0.0,0 STARLINK-4661,1 53732U 22107AJ  23066.50260529  .00043571  00000-0  27381-2 0  9991,2 53732  53.2171 144.1427 0001109  96.7499 263.3619 15.08850658 28162,6917.848,95.437,540.48,538.946,0.0
53732.0,STARLINK-4661,PAYLOAD,2023-03-07 21:36:04,15.08807856,0.0001385,53.2171,142.3587,105.1271,254.9874,0.00078392,0.00012199,0.0,0 STARLINK-4661,1 53732U 22107AJ  23066.90005130  .00012199  00000-0  78392-3 0  9991,2 53732  53.2171 142.3587 0001385 105.1271 254.9874 15.08807856 28822,6917.979,95.44,540.802,538.886,0.0
53732.0,STARLINK-4661,PAYLOAD,2023-03-08 03:57:37,15.08817341,0.0001173,53.2166,141.17,110.673,249.4388,0.0036827,0.00058774,0.0,0 STARLINK-4661,1 53732U 22107AJ  23067.16501505  .00058774  00000-0  36827-2 0  9992,2 53732  53.2166 141.1700 0001173 110.6730 249.4388 15.08817341 28263,6917.95,95.439,540.626,539.003,0.0
53732.0,STARLINK-4661,PAYLOAD,2023-03-08 21:26:51,15.08840395,0.0001013,53.2163,137.8989,115.251,244.8587,0.0030213,0.00048125,0.0,0 STARLINK-4661,1 53732U 22107AJ  23067.89365422  .00048125  00000-0  30213-2 0  9990,2 53732  53.2163 137.8989 0001013 115.2510 244.8587 15.08840395 28378,6917.879,95.438,540.445,539.043,0.0
53732.0,STARLINK-4661,PAYLOAD,2023-03-09 21:17:38,15.08830181,0.0001664,53.2155,133.4384,109.9015,250.2157,0.0014805,0.00023346,0.0,0 STARLINK-4661,1 53732U 22107AJ  23068.88724816  .00023346  00000-0  14805-2 0  9993,2 53732  53.2155 133.4384 0001664 109.9015 250.2157 15.08830181 29122,6917.91,95.438,540.927,538.624,0.0
53732.0,STARLINK-4661,PAYLOAD,2023-03-10 05:14:33,15.08843626,0.0001594,53.2153,131.9518,109.4498,250.6666,0.0036301,0.00057966,0.0,0 STARLINK-4661,1 53732U 22107AJ  23069.21844896  .00057966  00000-0  36301-2 0  9992,2 53732  53.2153 131.9518 0001594 109.4498 250.6666 15.08843626 28579,6917.869,95.437,540.837,538.632,0.0
53732.0,STARLINK-4661,PAYLOAD,2023-03-10 17:57:39,15.08821598,0.0001537,53.2151,129.5723,88.1134,272.0034,-0.00068478,-0.00011164,0.0,0 STARLINK-4661,1 53732U 22107AJ  23069.74836924 -.00011164  00000-0 -68478-3 0  9996,2 53732  53.2151 129.5723 0001537  88.1134 272.0034 15.08821598 28655,6917.937,95.439,540.865,538.738,0.0
53732.0,STARLINK-4661,PAYLOAD,2023-03-10 21:08:25,15.0880297,0.0001508,53.215,128.9778,95.9782,264.1382,0.0004092,6.224e-05,0.0,0 STARLINK-4661,1 53732U 22107AJ  23069.88085118  .00006224  00000-0  40920-3 0  9993,2 53732  53.2150 128.9778 0001508  95.9782 264.1382 15.08802970 29270,6917.994,95.44,540.902,538.815,0.0
53732.0,STARLINK-4661,PAYLOAD,2023-03-11 05:05:21,15.08833017,0.0001471,53.2152,127.4904,94.5396,265.5764,0.0010926,0.0001714,0.0,0 STARLINK-4661,1 53732U 22107AJ  23070.21205568  .00017140  00000-0  10926-2 0  9996,2 53732  53.2152 127.4904 0001471  94.5396 265.5764 15.08833017 28726,6917.902,95.438,540.784,538.749,0.0
53732.0,STARLINK-4661,PAYLOAD,2023-03-11 13:02:17,15.08843541,0.0001504,53.2151,126.0034,90.9104,269.2061,0.0025869,0.00041127,0.0,0 STARLINK-4661,1 53732U 22107AJ  23070.54326022  .00041127  00000-0  25869-2 0  9995,2 53732  53.2151 126.0034 0001504  90.9104 269.2061 15.08843541 29374,6917.87,95.437,540.775,538.694,0.0
53732.0,STARLINK-4661,PAYLOAD,2023-03-11 19:23:50,15.08822611,0.0001663,53.2152,124.8144,73.5458,286.5717,0.0013329,0.00020979,0.0,0 STARLINK-4661,1 53732U 22107AJ  23070.80822490  .00020979  00000-0  13329-2 0  9994,2 53732  53.2152 124.8144 0001663  73.5458 286.5717 15.08822611 28811,6917.934,95.439,540.949,538.648,0.0
53732.0,STARLINK-4661,PAYLOAD,2023-03-12 12:53:05,15.08866,0.0001562,53.2154,121.5428,80.245,279.8718,0.0026622,0.00042366,0.0,0 STARLINK-4661,1 53732U 22107AJ  23071.53686462  .00042366  00000-0  26622-2 0  9996,2 53732  53.2154 121.5428 0001562  80.2450 279.8718 15.08866000 29522,6917.801,95.436,540.746,538.585,0.0
53732.0,STARLINK-4661,PAYLOAD,2023-03-12 17:39:14,15.08852523,0.0001952,53.2154,120.6507,68.9009,291.2191,0.0011769,0.00018498,0.0,0 STARLINK-4661,1 53732U 22107AJ  23071.73558582  .00018498  00000-0  11769-2 0  9994,2 53732  53.2154 120.6507 0001952  68.9009 291.2191 15.08852523 29557,6917.842,95.437,541.057,538.357,0.0
53732.0,STARLINK-4661,PAYLOAD,2023-03-13 03:11:32,15.08863032,0.0001508,53.2156,118.8662,84.6788,275.4377,0.0011003,0.00017278,0.0,0 STARLINK-4661,1 53732U 22107AJ  23072.13301989  .00017278  00000-0  11003-2 0  9992,2 53732  53.2156 118.8662 0001508  84.6788 275.4377 15.08863032 29014,6917.81,95.436,540.718,538.632,0.0
53732.0,STARLINK-4661,PAYLOAD,2023-03-13 12:43:51,15.08876179,0.000144,53.216,117.0823,83.855,276.2606,0.0018816,0.00029814,0.0,0 STARLINK-4661,1 53732U 22107AJ  23072.53045366  .00029814  00000-0  18816-2 0  9998,2 53732  53.2160 117.0823 0001440  83.8550 276.2606 15.08876179 29674,6917.77,95.435,540.631,538.639,0.0
53732.0,STARLINK-4661,PAYLOAD,2023-03-13 14:19:14,15.08880836,0.0001461,53.216,116.7849,82.0427,278.0731,0.0018792,0.0002978,0.0,0 STARLINK-4661,1 53732U 22107AJ  23072.59669188  .00029780  00000-0  18792-2 0  9993,2 53732  53.2160 116.7849 0001461  82.0427 278.0731 15.08880836 29680,6917.756,95.435,540.631,538.61,0.0
53732.0,STARLINK-4661,PAYLOAD,2023-03-14 04:37:42,15.08848477,0.000141,53.2164,114.1088,95.9347,264.1806,0.00031182,4.679e-05,0.0,0 STARLINK-4661,1 53732U 22107AJ  23073.19285536  .00004679  00000-0  31182-3 0  9990,2 53732  53.2164 114.1088 0001410  95.9347 264.1806 15.08848477 29177,6917.854,95.437,540.695,538.744,0.0
53732.0,STARLINK-4661,PAYLOAD,2023-03-14 07:48:29,15.08843881,0.0001435,53.2166,113.5148,91.6281,268.4875,0.0011515,0.00018088,0.0,0 STARLINK-4661,1 53732U 22107AJ  23073.32533733  .00018088  00000-0  11515-2 0  9996,2 53732  53.2166 113.5148 0001435  91.6281 268.4875 15.08843881 29791,6917.869,95.437,540.726,538.741,0.0
